{
  "norad_id": 26554,
  "name": "NSS-11",
  "history": [
    {
      "epoch": "2026-03-28T05:43:38.788032Z",
      "apogee_km": 35799.58370212795,
      "perigee_km": 35773.57650461859,
      "latitude_deg": 0.15467048171108458,
      "longitude_deg": 176.03442103023733,
      "height_km": 35784.255282114944,
      "semi_major_axis_km": 42164.717103373274,
      "eccentricity": 0.0003084,
      "inclination_deg": 1.9181,
      "raan_deg": 82.3299,
      "arg_perigee_deg": 283.2199,
      "mean_anomaly_deg": 82.0052,
      "mean_motion_rev_day": 1.00271838
    }
  ]
}